{"type": "FeatureCollection", "features": [ {"type": "Feature", "properties": {"norad_id": 43437, "name": "SENTINEL-3B", "group": "resource", "lat": -6.4202389891438365, "lon": 65.5951764077157, "alt_km": 806.4645228450581, "timestamp": "2025-12-25T14:48:24.459410+00:00", "meta": {"OBJECT_NAME": "SENTINEL-3B", "OBJECT_ID": "2018-039A", "EPOCH": "2025-12-25T03:03:19.264320", "MEAN_MOTION": 14.26738745, "ECCENTRICITY": 0.00015924, "INCLINATION": 98.625, "RA_OF_ASC_NODE": 64.1341, "ARG_OF_PERICENTER": 89.4651, "MEAN_ANOMALY": 270.6712, "EPHEMERIS_TYPE": 0, "CLASSIFICATION_TYPE": "U", "NORAD_CAT_ID": 43437, "ELEMENT_SET_NO": 999, "REV_AT_EPOCH": 39930, "BSTAR": 7.8049865e-05, "MEAN_MOTION_DOT": 1.45e-06, "MEAN_MOTION_DDOT": 0}, "tle": {"line1": "1 43437U 18039A   25359.12730630  .00000145  00000+0  78050-4 0  9991", "line2": "2 43437  98.6250  64.1341 0001592  89.4651 270.6712 14.26738745399308"}}, "geometry": {"type": "Point", "coordinates": [65.5951764077157, -6.4202389891438365]}}, {"type": "Feature", "properties": {"norad_id": 43461, "name": "GAOFEN-5 01", "group": "resource", "lat": 75.53972796982832, "lon": 177.93720620782216, "alt_km": 684.915229299997, "timestamp": "2025-12-25T14:48:24.459419+00:00", "meta": {"OBJECT_NAME": "GAOFEN-5 01", "OBJECT_ID": "2018-043A", "EPOCH": "2025-12-24T20:15:17.532288", "MEAN_MOTION": 14.60422427, "ECCENTRICITY": 5.289e-05, "INCLINATION": 98.4345, "RA_OF_ASC_NODE": 322.0236, "ARG_OF_PERICENTER": 244.9883, "MEAN_ANOMALY": 115.1262, "EPHEMERIS_TYPE": 0, "CLASSIFICATION_TYPE": "U", "NORAD_CAT_ID": 43461, "ELEMENT_SET_NO": 999, "REV_AT_EPOCH": 40624, "BSTAR": 0.00010643871, "MEAN_MOTION_DOT": 4.67e-06, "MEAN_MOTION_DDOT": 0}, "tle": {"line1": "1 43461U 18043A   25358.84395292  .00000467  00000+0  10644-3 0  9993", "line2": "2 43461  98.4345 322.0236 0000528 244.9883 115.1262 14.60422427406240"}}, "geometry": {"type": "Point", "coordinates": [177.93720620782216, 75.53972796982832]}}, {"type": "Feature", "properties": {"norad_id": 43484, "name": "GAOFEN-6", "group": "resource", "lat": 54.36411136766182, "lon": -105.52426361838737, "alt_km": 636.4396705202053, "timestamp": "2025-12-25T14:48:24.459429+00:00", "meta": {"OBJECT_NAME": "GAOFEN-6", "OBJECT_ID": "2018-048A", "EPOCH": "2025-12-25T07:44:20.198400", "MEAN_MOTION": 14.76587189, "ECCENTRICITY": 0.00125477, "INCLINATION": 97.8012, "RA_OF_ASC_NODE": 63.166, "ARG_OF_PERICENTER": 26.203, "MEAN_ANOMALY": 333.9813, "EPHEMERIS_TYPE": 0, "CLASSIFICATION_TYPE": "U", "NORAD_CAT_ID": 43484, "ELEMENT_SET_NO": 999, "REV_AT_EPOCH": 40773, "BSTAR": 9.7806148e-05, "MEAN_MOTION_DOT": 6.34e-06, "MEAN_MOTION_DDOT": 0}, "tle": {"line1": "1 43484U 18048A   25359.32245600  .00000634  00000+0  97806-4 0  9996", "line2": "2 43484  97.8012  63.1660 0012547  26.2030 333.9813 14.76587189407733"}}, "geometry": {"type": "Point", "coordinates": [-105.52426361838737, 54.36411136766182]}}, {"type": "Feature", "properties": {"norad_id": 43585, "name": "GAOFEN-11 01", "group": "resource", "lat": 60.48315651694264, "lon": 49.628380255030194, "alt_km": 414.7306052807535, "timestamp": "2025-12-25T14:48:24.459438+00:00", "meta": {"OBJECT_NAME": "GAOFEN-11 01", "OBJECT_ID": "2018-063A", "EPOCH": "2025-12-25T06:47:38.208768", "MEAN_MOTION": 15.49573324, "ECCENTRICITY": 0.00038717, "INCLINATION": 97.1535, "RA_OF_ASC_NODE": 62.1141, "ARG_OF_PERICENTER": 248.3847, "MEAN_ANOMALY": 111.6992, "EPHEMERIS_TYPE": 0, "CLASSIFICATION_TYPE": "U", "NORAD_CAT_ID": 43585, "ELEMENT_SET_NO": 999, "REV_AT_EPOCH": 41336, "BSTAR": 0.00037543759, "MEAN_MOTION_DOT": 0.00020666, "MEAN_MOTION_DDOT": 0}, "tle": {"line1": "1 43585U 18063A   25359.28308112  .00020666  00000+0  37544-3 0  9997", "line2": "2 43585  97.1535  62.1141 0003871 248.3847 111.6992 15.49573324413366"}}, "geometry": {"type": "Point", "coordinates": [49.628380255030194, 60.48315651694264]}}, {"type": "Feature", "properties": {"norad_id": 43613, "name": "ICESAT-2", "group": "resource", "lat": -75.89694326079474, "lon": 56.202726223322166, "alt_km": 490.28873198270685, "timestamp": "2025-12-25T14:48:24.459453+00:00", "meta": {"OBJECT_NAME": "ICESAT-2", "OBJECT_ID": "2018-070A", "EPOCH": "2025-12-25T05:49:56.539200", "MEAN_MOTION": 15.28235855, "ECCENTRICITY": 0.0003076, "INCLINATION": 92.0036, "RA_OF_ASC_NODE": 244.1117, "ARG_OF_PERICENTER": 109.5687, "MEAN_ANOMALY": 250.5895, "EPHEMERIS_TYPE": 0, "CLASSIFICATION_TYPE": "U", "NORAD_CAT_ID": 43613, "ELEMENT_SET_NO": 999, "REV_AT_EPOCH": 40589, "BSTAR": 0.00047886213, "MEAN_MOTION_DOT": 0.00013176, "MEAN_MOTION_DDOT": 0}, "tle": {"line1": "1 43613U 18070A   25359.24301550  .00013176  00000+0  47886-3 0  9990", "line2": "2 43613  92.0036 244.1117 0003076 109.5687 250.5895 15.28235855405895"}}, "geometry": {"type": "Point", "coordinates": [56.202726223322166, -75.89694326079474]}}, {"type": "Feature", "properties": {"norad_id": 43719, "name": "HYSIS", "group": "resource", "lat": -74.56936709699825, "lon": -148.1336872763096, "alt_km": 641.3607939730473, "timestamp": "2025-12-25T14:48:24.459462+00:00", "meta": {"OBJECT_NAME": "HYSIS", "OBJECT_ID": "2018-096A", "EPOCH": "2025-12-25T07:09:10.543680", "MEAN_MOTION": 14.78679546, "ECCENTRICITY": 8.33e-05, "INCLINATION": 98.0078, "RA_OF_ASC_NODE": 62.2137, "ARG_OF_PERICENTER": 58.3366, "MEAN_ANOMALY": 301.7926, "EPHEMERIS_TYPE": 0, "CLASSIFICATION_TYPE": "U", "NORAD_CAT_ID": 43719, "ELEMENT_SET_NO": 999, "REV_AT_EPOCH": 38172, "BSTAR": 0.00022771532, "MEAN_MOTION_DOT": 1.617e-05, "MEAN_MOTION_DDOT": 0}, "tle": {"line1": "1 43719U 18096A   25359.29803870  .00001617  00000+0  22772-3 0  9996", "line2": "2 43719  98.0078  62.2137 0000833  58.3366 301.7926 14.78679546381720"}}, "geometry": {"type": "Point", "coordinates": [-148.1336872763096, -74.56936709699825]}}, {"type": "Feature", "properties": {"norad_id": 43783, "name": "KAZSTSAT", "group": "resource", "lat": 10.477061276060438, "lon": 32.8594564014323, "alt_km": 570.9936588440278, "timestamp": "2025-12-25T14:48:24.459471+00:00", "meta": {"OBJECT_NAME": "KAZSTSAT", "OBJECT_ID": "2018-099AB", "EPOCH": "2025-12-25T01:56:47.065056", "MEAN_MOTION": 14.99371736, "ECCENTRICITY": 0.00062989, "INCLINATION": 97.4514, "RA_OF_ASC_NODE": 33.7337, "ARG_OF_PERICENTER": 275.0588, "MEAN_ANOMALY": 84.9917, "EPHEMERIS_TYPE": 0, "CLASSIFICATION_TYPE": "U", "NORAD_CAT_ID": 43783, "ELEMENT_SET_NO": 999, "REV_AT_EPOCH": 38521, "BSTAR": 5.7850064e-05, "MEAN_MOTION_DOT": 6.52e-06, "MEAN_MOTION_DDOT": 0}, "tle": {"line1": "1 43783U 18099AB  25359.08110029  .00000652  00000+0  57850-4 0  9998", "line2": "2 43783  97.4514  33.7337 0006298 275.0588  84.9917 14.99371736385210"}}, "geometry": {"type": "Point", "coordinates": [32.8594564014323, 10.477061276060438]}}, {"type": "Feature", "properties": {"norad_id": 43831, "name": "SAUDISAT 5A", "group": "resource", "lat": -23.78840365242802, "lon": -123.69516354179433, "alt_km": 501.3547586011873, "timestamp": "2025-12-25T14:48:24.459480+00:00", "meta": {"OBJECT_NAME": "SAUDISAT 5A", "OBJECT_ID": "2018-102A", "EPOCH": "2025-12-25T07:37:14.240352", "MEAN_MOTION": 15.25808467, "ECCENTRICITY": 0.0011038, "INCLINATION": 97.3331, "RA_OF_ASC_NODE": 59.2655, "ARG_OF_PERICENTER": 37.0983, "MEAN_ANOMALY": 323.1017, "EPHEMERIS_TYPE": 0, "CLASSIFICATION_TYPE": "U", "NORAD_CAT_ID": 43831, "ELEMENT_SET_NO": 999, "REV_AT_EPOCH": 38914, "BSTAR": 0.00026789024, "MEAN_MOTION_DOT": 6.789e-05, "MEAN_MOTION_DDOT": 0}, "tle": {"line1": "1 43831U 18102A   25359.31752593  .00006789  00000+0  26789-3 0  9994", "line2": "2 43831  97.3331  59.2655 0011038  37.0983 323.1017 15.25808467389140"}}, "geometry": {"type": "Point", "coordinates": [-123.69516354179433, -23.78840365242802]}}, {"type": "Feature", "properties": {"norad_id": 43833, "name": "SAUDISAT 5B", "group": "resource", "lat": -82.34361012844646, "lon": 135.90040702098995, "alt_km": 499.4147565606045, "timestamp": "2025-12-25T14:48:24.459489+00:00", "meta": {"OBJECT_NAME": "SAUDISAT 5B", "OBJECT_ID": "2018-102C", "EPOCH": "2025-12-25T07:19:23.580192", "MEAN_MOTION": 15.26154438, "ECCENTRICITY": 0.00117842, "INCLINATION": 97.3425, "RA_OF_ASC_NODE": 62.0145, "ARG_OF_PERICENTER": 39.1113, "MEAN_ANOMALY": 321.0975, "EPHEMERIS_TYPE": 0, "CLASSIFICATION_TYPE": "U", "NORAD_CAT_ID": 43833, "ELEMENT_SET_NO": 999, "REV_AT_EPOCH": 38925, "BSTAR": 0.0002419181, "MEAN_MOTION_DOT": 6.189e-05, "MEAN_MOTION_DDOT": 0}, "tle": {"line1": "1 43833U 18102C   25359.30513403  .00006189  00000+0  24192-3 0  9990", "line2": "2 43833  97.3425  62.0145 0011784  39.1113 321.0975 15.26154438389253"}}, "geometry": {"type": "Point", "coordinates": [135.90040702098995, -82.34361012844646]}}, {"type": "Feature", "properties": {"norad_id": 44622, "name": "GAOFEN-10R", "group": "resource", "lat": 13.06766496863264, "lon": -54.70298667583548, "alt_km": 616.7346479802909, "timestamp": "2025-12-25T14:48:24.459499+00:00", "meta": {"OBJECT_NAME": "GAOFEN-10R", "OBJECT_ID": "2019-066A", "EPOCH": "2025-12-25T06:38:59.973792", "MEAN_MOTION": 14.82833447, "ECCENTRICITY": 0.0006989, "INCLINATION": 98.0295, "RA_OF_ASC_NODE": 306.8334, "ARG_OF_PERICENTER": 4.9351, "MEAN_ANOMALY": 355.193, "EPHEMERIS_TYPE": 0, "CLASSIFICATION_TYPE": "U", "NORAD_CAT_ID": 44622, "ELEMENT_SET_NO": 999, "REV_AT_EPOCH": 33660, "BSTAR": 0.00021267168, "MEAN_MOTION_DOT": 1.667e-05, "MEAN_MOTION_DDOT": 0}, "tle": {"line1": "1 44622U 19066A   25359.27708303  .00001667  00000+0  21267-3 0  9994", "line2": "2 44622  98.0295 306.8334 0006989   4.9351 355.1930 14.82833447336602"}}, "geometry": {"type": "Point", "coordinates": [-54.70298667583548, 13.06766496863264]}}]}